Country;ZIP;City;Street;number
"Country0";"12-345";"City0";"Street0";"0"
"Country1";"12-345";"City1";"Street1";"1"
"Country2";"12-345";"City2";"Street2";"2"
"Country3";"12-345";"City3";"Street3";"3"
"Country4";"12-345";"City4";"Street4";"4"
"Country5";"12-345";"City5";"Street5";"5"
"Country6";"12-345";"City6";"Street6";"6"
"Country7";"12-345";"City7";"Street7";"7"
"Country8";"12-345";"City8";"Street8";"8"
"Country9";"12-345";"City9";"Street9";"9"
"Country10";"12-345";"City10";"Street10";"10"
"Country11";"12-345";"City11";"Street11";"11"
"Country12";"12-345";"City12";"Street12";"12"
"Country13";"12-345";"City13";"Street13";"13"
"Country14";"12-345";"City14";"Street14";"14"
"Country15";"12-345";"City15";"Street15";"15"
"Country16";"12-345";"City16";"Street16";"16"
"Country17";"12-345";"City17";"Street17";"17"
"Country18";"12-345";"City18";"Street18";"18"
"Country19";"12-345";"City19";"Street19";"19"
"Country20";"12-345";"City20";"Street20";"20"
"Country21";"12-345";"City21";"Street21";"21"
"Country22";"12-345";"City22";"Street22";"22"
"Country23";"12-345";"City23";"Street23";"23"
"Country24";"12-345";"City24";"Street24";"24"
"Country25";"12-345";"City25";"Street25";"25"
"Country26";"12-345";"City26";"Street26";"26"
"Country27";"12-345";"City27";"Street27";"27"
"Country28";"12-345";"City28";"Street28";"28"
"Country29";"12-345";"City29";"Street29";"29"
"Country30";"12-345";"City30";"Street30";"30"
"Country31";"12-345";"City31";"Street31";"31"
"Country32";"12-345";"City32";"Street32";"32"
"Country33";"12-345";"City33";"Street33";"33"
"Country34";"12-345";"City34";"Street34";"34"
"Country35";"12-345";"City35";"Street35";"35"
"Country36";"12-345";"City36";"Street36";"36"
"Country37";"12-345";"City37";"Street37";"37"
"Country38";"12-345";"City38";"Street38";"38"
"Country39";"12-345";"City39";"Street39";"39"
"Country40";"12-345";"City40";"Street40";"40"
"Country41";"12-345";"City41";"Street41";"41"
"Country42";"12-345";"City42";"Street42";"42"
"Country43";"12-345";"City43";"Street43";"43"
"Country44";"12-345";"City44";"Street44";"44"
"Country45";"12-345";"City45";"Street45";"45"
"Country46";"12-345";"City46";"Street46";"46"
"Country47";"12-345";"City47";"Street47";"47"
"Country48";"12-345";"City48";"Street48";"48"
"Country49";"12-345";"City49";"Street49";"49"
"Country50";"12-345";"City50";"Street50";"50"
"Country51";"12-345";"City51";"Street51";"51"
"Country52";"12-345";"City52";"Street52";"52"
"Country53";"12-345";"City53";"Street53";"53"
"Country54";"12-345";"City54";"Street54";"54"
"Country55";"12-345";"City55";"Street55";"55"
"Country56";"12-345";"City56";"Street56";"56"
"Country57";"12-345";"City57";"Street57";"57"
"Country58";"12-345";"City58";"Street58";"58"
"Country59";"12-345";"City59";"Street59";"59"
"Country60";"12-345";"City60";"Street60";"60"
"Country61";"12-345";"City61";"Street61";"61"
"Country62";"12-345";"City62";"Street62";"62"
"Country63";"12-345";"City63";"Street63";"63"
"Country64";"12-345";"City64";"Street64";"64"
"Country65";"12-345";"City65";"Street65";"65"
"Country66";"12-345";"City66";"Street66";"66"
"Country67";"12-345";"City67";"Street67";"67"
"Country68";"12-345";"City68";"Street68";"68"
"Country69";"12-345";"City69";"Street69";"69"
"Country70";"12-345";"City70";"Street70";"70"
"Country71";"12-345";"City71";"Street71";"71"
"Country72";"12-345";"City72";"Street72";"72"
"Country73";"12-345";"City73";"Street73";"73"
"Country74";"12-345";"City74";"Street74";"74"
"Country75";"12-345";"City75";"Street75";"75"
"Country76";"12-345";"City76";"Street76";"76"
"Country77";"12-345";"City77";"Street77";"77"
"Country78";"12-345";"City78";"Street78";"78"
"Country79";"12-345";"City79";"Street79";"79"
"Country80";"12-345";"City80";"Street80";"80"
"Country81";"12-345";"City81";"Street81";"81"
"Country82";"12-345";"City82";"Street82";"82"
"Country83";"12-345";"City83";"Street83";"83"
"Country84";"12-345";"City84";"Street84";"84"
"Country85";"12-345";"City85";"Street85";"85"
"Country86";"12-345";"City86";"Street86";"86"
"Country87";"12-345";"City87";"Street87";"87"
"Country88";"12-345";"City88";"Street88";"88"
"Country89";"12-345";"City89";"Street89";"89"
"Country90";"12-345";"City90";"Street90";"90"
"Country91";"12-345";"City91";"Street91";"91"
"Country92";"12-345";"City92";"Street92";"92"
"Country93";"12-345";"City93";"Street93";"93"
"Country94";"12-345";"City94";"Street94";"94"
"Country95";"12-345";"City95";"Street95";"95"
"Country96";"12-345";"City96";"Street96";"96"
"Country97";"12-345";"City97";"Street97";"97"
"Country98";"12-345";"City98";"Street98";"98"
"Country99";"12-345";"City99";"Street99";"99"
"Country100";"12-345";"City100";"Street100";"100"
"Country101";"12-345";"City101";"Street101";"101"
"Country102";"12-345";"City102";"Street102";"102"
"Country103";"12-345";"City103";"Street103";"103"
"Country104";"12-345";"City104";"Street104";"104"
"Country105";"12-345";"City105";"Street105";"105"
"Country106";"12-345";"City106";"Street106";"106"
"Country107";"12-345";"City107";"Street107";"107"
"Country108";"12-345";"City108";"Street108";"108"
"Country109";"12-345";"City109";"Street109";"109"
"Country110";"12-345";"City110";"Street110";"110"
"Country111";"12-345";"City111";"Street111";"111"
"Country112";"12-345";"City112";"Street112";"112"
"Country113";"12-345";"City113";"Street113";"113"
"Country114";"12-345";"City114";"Street114";"114"
"Country115";"12-345";"City115";"Street115";"115"
"Country116";"12-345";"City116";"Street116";"116"
"Country117";"12-345";"City117";"Street117";"117"
"Country118";"12-345";"City118";"Street118";"118"
"Country119";"12-345";"City119";"Street119";"119"
"Country120";"12-345";"City120";"Street120";"120"
"Country121";"12-345";"City121";"Street121";"121"
"Country122";"12-345";"City122";"Street122";"122"
"Country123";"12-345";"City123";"Street123";"123"
"Country124";"12-345";"City124";"Street124";"124"
"Country125";"12-345";"City125";"Street125";"125"
"Country126";"12-345";"City126";"Street126";"126"
"Country127";"12-345";"City127";"Street127";"127"
"Country128";"12-345";"City128";"Street128";"128"
"Country129";"12-345";"City129";"Street129";"129"
"Country130";"12-345";"City130";"Street130";"130"
"Country131";"12-345";"City131";"Street131";"131"
"Country132";"12-345";"City132";"Street132";"132"
"Country133";"12-345";"City133";"Street133";"133"
"Country134";"12-345";"City134";"Street134";"134"
"Country135";"12-345";"City135";"Street135";"135"
"Country136";"12-345";"City136";"Street136";"136"
"Country137";"12-345";"City137";"Street137";"137"
"Country138";"12-345";"City138";"Street138";"138"
"Country139";"12-345";"City139";"Street139";"139"
"Country140";"12-345";"City140";"Street140";"140"
"Country141";"12-345";"City141";"Street141";"141"
"Country142";"12-345";"City142";"Street142";"142"
"Country143";"12-345";"City143";"Street143";"143"
"Country144";"12-345";"City144";"Street144";"144"
"Country145";"12-345";"City145";"Street145";"145"
"Country146";"12-345";"City146";"Street146";"146"
"Country147";"12-345";"City147";"Street147";"147"
"Country148";"12-345";"City148";"Street148";"148"
"Country149";"12-345";"City149";"Street149";"149"
"Country150";"12-345";"City150";"Street150";"150"
"Country151";"12-345";"City151";"Street151";"151"
"Country152";"12-345";"City152";"Street152";"152"
"Country153";"12-345";"City153";"Street153";"153"
"Country154";"12-345";"City154";"Street154";"154"
"Country155";"12-345";"City155";"Street155";"155"
"Country156";"12-345";"City156";"Street156";"156"
"Country157";"12-345";"City157";"Street157";"157"
"Country158";"12-345";"City158";"Street158";"158"
"Country159";"12-345";"City159";"Street159";"159"
"Country160";"12-345";"City160";"Street160";"160"
"Country161";"12-345";"City161";"Street161";"161"
"Country162";"12-345";"City162";"Street162";"162"
"Country163";"12-345";"City163";"Street163";"163"
"Country164";"12-345";"City164";"Street164";"164"
"Country165";"12-345";"City165";"Street165";"165"
"Country166";"12-345";"City166";"Street166";"166"
"Country167";"12-345";"City167";"Street167";"167"
"Country168";"12-345";"City168";"Street168";"168"
"Country169";"12-345";"City169";"Street169";"169"
"Country170";"12-345";"City170";"Street170";"170"
"Country171";"12-345";"City171";"Street171";"171"
"Country172";"12-345";"City172";"Street172";"172"
"Country173";"12-345";"City173";"Street173";"173"
"Country174";"12-345";"City174";"Street174";"174"
"Country175";"12-345";"City175";"Street175";"175"
"Country176";"12-345";"City176";"Street176";"176"
"Country177";"12-345";"City177";"Street177";"177"
"Country178";"12-345";"City178";"Street178";"178"
"Country179";"12-345";"City179";"Street179";"179"
"Country180";"12-345";"City180";"Street180";"180"
"Country181";"12-345";"City181";"Street181";"181"
"Country182";"12-345";"City182";"Street182";"182"
"Country183";"12-345";"City183";"Street183";"183"
"Country184";"12-345";"City184";"Street184";"184"
"Country185";"12-345";"City185";"Street185";"185"
"Country186";"12-345";"City186";"Street186";"186"
"Country187";"12-345";"City187";"Street187";"187"
"Country188";"12-345";"City188";"Street188";"188"
"Country189";"12-345";"City189";"Street189";"189"
"Country190";"12-345";"City190";"Street190";"190"
"Country191";"12-345";"City191";"Street191";"191"
"Country192";"12-345";"City192";"Street192";"192"
"Country193";"12-345";"City193";"Street193";"193"
"Country194";"12-345";"City194";"Street194";"194"
"Country195";"12-345";"City195";"Street195";"195"
"Country196";"12-345";"City196";"Street196";"196"
"Country197";"12-345";"City197";"Street197";"197"
"Country198";"12-345";"City198";"Street198";"198"
"Country199";"12-345";"City199";"Street199";"199"
"Country200";"12-345";"City200";"Street200";"200"
"Country201";"12-345";"City201";"Street201";"201"
"Country202";"12-345";"City202";"Street202";"202"
"Country203";"12-345";"City203";"Street203";"203"
"Country204";"12-345";"City204";"Street204";"204"
"Country205";"12-345";"City205";"Street205";"205"
"Country206";"12-345";"City206";"Street206";"206"
"Country207";"12-345";"City207";"Street207";"207"
"Country208";"12-345";"City208";"Street208";"208"
"Country209";"12-345";"City209";"Street209";"209"
"Country210";"12-345";"City210";"Street210";"210"
"Country211";"12-345";"City211";"Street211";"211"
"Country212";"12-345";"City212";"Street212";"212"
"Country213";"12-345";"City213";"Street213";"213"
"Country214";"12-345";"City214";"Street214";"214"
"Country215";"12-345";"City215";"Street215";"215"
"Country216";"12-345";"City216";"Street216";"216"
"Country217";"12-345";"City217";"Street217";"217"
"Country218";"12-345";"City218";"Street218";"218"
"Country219";"12-345";"City219";"Street219";"219"
"Country220";"12-345";"City220";"Street220";"220"
"Country221";"12-345";"City221";"Street221";"221"
"Country222";"12-345";"City222";"Street222";"222"
"Country223";"12-345";"City223";"Street223";"223"
"Country224";"12-345";"City224";"Street224";"224"
"Country225";"12-345";"City225";"Street225";"225"
"Country226";"12-345";"City226";"Street226";"226"
"Country227";"12-345";"City227";"Street227";"227"
"Country228";"12-345";"City228";"Street228";"228"
"Country229";"12-345";"City229";"Street229";"229"
"Country230";"12-345";"City230";"Street230";"230"
"Country231";"12-345";"City231";"Street231";"231"
"Country232";"12-345";"City232";"Street232";"232"
"Country233";"12-345";"City233";"Street233";"233"
"Country234";"12-345";"City234";"Street234";"234"
"Country235";"12-345";"City235";"Street235";"235"
"Country236";"12-345";"City236";"Street236";"236"
"Country237";"12-345";"City237";"Street237";"237"
"Country238";"12-345";"City238";"Street238";"238"
"Country239";"12-345";"City239";"Street239";"239"
"Country240";"12-345";"City240";"Street240";"240"
"Country241";"12-345";"City241";"Street241";"241"
"Country242";"12-345";"City242";"Street242";"242"
"Country243";"12-345";"City243";"Street243";"243"
"Country244";"12-345";"City244";"Street244";"244"
"Country245";"12-345";"City245";"Street245";"245"
"Country246";"12-345";"City246";"Street246";"246"
"Country247";"12-345";"City247";"Street247";"247"
"Country248";"12-345";"City248";"Street248";"248"
"Country249";"12-345";"City249";"Street249";"249"
"Country250";"12-345";"City250";"Street250";"250"
"Country251";"12-345";"City251";"Street251";"251"
"Country252";"12-345";"City252";"Street252";"252"
"Country253";"12-345";"City253";"Street253";"253"
"Country254";"12-345";"City254";"Street254";"254"
"Country255";"12-345";"City255";"Street255";"255"
"Country256";"12-345";"City256";"Street256";"256"
"Country257";"12-345";"City257";"Street257";"257"
"Country258";"12-345";"City258";"Street258";"258"
"Country259";"12-345";"City259";"Street259";"259"
"Country260";"12-345";"City260";"Street260";"260"
"Country261";"12-345";"City261";"Street261";"261"
"Country262";"12-345";"City262";"Street262";"262"
"Country263";"12-345";"City263";"Street263";"263"
"Country264";"12-345";"City264";"Street264";"264"
"Country265";"12-345";"City265";"Street265";"265"
"Country266";"12-345";"City266";"Street266";"266"
"Country267";"12-345";"City267";"Street267";"267"
"Country268";"12-345";"City268";"Street268";"268"
"Country269";"12-345";"City269";"Street269";"269"
"Country270";"12-345";"City270";"Street270";"270"
"Country271";"12-345";"City271";"Street271";"271"
"Country272";"12-345";"City272";"Street272";"272"
"Country273";"12-345";"City273";"Street273";"273"
"Country274";"12-345";"City274";"Street274";"274"
"Country275";"12-345";"City275";"Street275";"275"
"Country276";"12-345";"City276";"Street276";"276"
"Country277";"12-345";"City277";"Street277";"277"
"Country278";"12-345";"City278";"Street278";"278"
"Country279";"12-345";"City279";"Street279";"279"
"Country280";"12-345";"City280";"Street280";"280"
"Country281";"12-345";"City281";"Street281";"281"
"Country282";"12-345";"City282";"Street282";"282"
"Country283";"12-345";"City283";"Street283";"283"
"Country284";"12-345";"City284";"Street284";"284"
"Country285";"12-345";"City285";"Street285";"285"
"Country286";"12-345";"City286";"Street286";"286"
"Country287";"12-345";"City287";"Street287";"287"
"Country288";"12-345";"City288";"Street288";"288"
"Country289";"12-345";"City289";"Street289";"289"
"Country290";"12-345";"City290";"Street290";"290"
"Country291";"12-345";"City291";"Street291";"291"
"Country292";"12-345";"City292";"Street292";"292"
"Country293";"12-345";"City293";"Street293";"293"
"Country294";"12-345";"City294";"Street294";"294"
"Country295";"12-345";"City295";"Street295";"295"
"Country296";"12-345";"City296";"Street296";"296"
"Country297";"12-345";"City297";"Street297";"297"
"Country298";"12-345";"City298";"Street298";"298"
"Country299";"12-345";"City299";"Street299";"299"
"Country300";"12-345";"City300";"Street300";"300"
"Country301";"12-345";"City301";"Street301";"301"
"Country302";"12-345";"City302";"Street302";"302"
"Country303";"12-345";"City303";"Street303";"303"
"Country304";"12-345";"City304";"Street304";"304"
"Country305";"12-345";"City305";"Street305";"305"
"Country306";"12-345";"City306";"Street306";"306"
"Country307";"12-345";"City307";"Street307";"307"
"Country308";"12-345";"City308";"Street308";"308"
"Country309";"12-345";"City309";"Street309";"309"
"Country310";"12-345";"City310";"Street310";"310"
"Country311";"12-345";"City311";"Street311";"311"
"Country312";"12-345";"City312";"Street312";"312"
"Country313";"12-345";"City313";"Street313";"313"
"Country314";"12-345";"City314";"Street314";"314"
"Country315";"12-345";"City315";"Street315";"315"
"Country316";"12-345";"City316";"Street316";"316"
"Country317";"12-345";"City317";"Street317";"317"
"Country318";"12-345";"City318";"Street318";"318"
"Country319";"12-345";"City319";"Street319";"319"
"Country320";"12-345";"City320";"Street320";"320"
"Country321";"12-345";"City321";"Street321";"321"
"Country322";"12-345";"City322";"Street322";"322"
"Country323";"12-345";"City323";"Street323";"323"
"Country324";"12-345";"City324";"Street324";"324"
"Country325";"12-345";"City325";"Street325";"325"
"Country326";"12-345";"City326";"Street326";"326"
"Country327";"12-345";"City327";"Street327";"327"
"Country328";"12-345";"City328";"Street328";"328"
"Country329";"12-345";"City329";"Street329";"329"
"Country330";"12-345";"City330";"Street330";"330"
"Country331";"12-345";"City331";"Street331";"331"
"Country332";"12-345";"City332";"Street332";"332"
"Country333";"12-345";"City333";"Street333";"333"
"Country334";"12-345";"City334";"Street334";"334"
"Country335";"12-345";"City335";"Street335";"335"
"Country336";"12-345";"City336";"Street336";"336"
"Country337";"12-345";"City337";"Street337";"337"
"Country338";"12-345";"City338";"Street338";"338"
"Country339";"12-345";"City339";"Street339";"339"
"Country340";"12-345";"City340";"Street340";"340"
"Country341";"12-345";"City341";"Street341";"341"
"Country342";"12-345";"City342";"Street342";"342"
"Country343";"12-345";"City343";"Street343";"343"
"Country344";"12-345";"City344";"Street344";"344"
"Country345";"12-345";"City345";"Street345";"345"
"Country346";"12-345";"City346";"Street346";"346"
"Country347";"12-345";"City347";"Street347";"347"
"Country348";"12-345";"City348";"Street348";"348"
"Country349";"12-345";"City349";"Street349";"349"
"Country350";"12-345";"City350";"Street350";"350"
"Country351";"12-345";"City351";"Street351";"351"
"Country352";"12-345";"City352";"Street352";"352"
"Country353";"12-345";"City353";"Street353";"353"
"Country354";"12-345";"City354";"Street354";"354"
"Country355";"12-345";"City355";"Street355";"355"
"Country356";"12-345";"City356";"Street356";"356"
"Country357";"12-345";"City357";"Street357";"357"
"Country358";"12-345";"City358";"Street358";"358"
"Country359";"12-345";"City359";"Street359";"359"
"Country360";"12-345";"City360";"Street360";"360"
"Country361";"12-345";"City361";"Street361";"361"
"Country362";"12-345";"City362";"Street362";"362"
"Country363";"12-345";"City363";"Street363";"363"
"Country364";"12-345";"City364";"Street364";"364"
"Country365";"12-345";"City365";"Street365";"365"
"Country366";"12-345";"City366";"Street366";"366"
"Country367";"12-345";"City367";"Street367";"367"
"Country368";"12-345";"City368";"Street368";"368"
"Country369";"12-345";"City369";"Street369";"369"
"Country370";"12-345";"City370";"Street370";"370"
"Country371";"12-345";"City371";"Street371";"371"
"Country372";"12-345";"City372";"Street372";"372"
"Country373";"12-345";"City373";"Street373";"373"
"Country374";"12-345";"City374";"Street374";"374"
"Country375";"12-345";"City375";"Street375";"375"
"Country376";"12-345";"City376";"Street376";"376"
"Country377";"12-345";"City377";"Street377";"377"
"Country378";"12-345";"City378";"Street378";"378"
"Country379";"12-345";"City379";"Street379";"379"
"Country380";"12-345";"City380";"Street380";"380"
"Country381";"12-345";"City381";"Street381";"381"
"Country382";"12-345";"City382";"Street382";"382"
"Country383";"12-345";"City383";"Street383";"383"
"Country384";"12-345";"City384";"Street384";"384"
"Country385";"12-345";"City385";"Street385";"385"
"Country386";"12-345";"City386";"Street386";"386"
"Country387";"12-345";"City387";"Street387";"387"
"Country388";"12-345";"City388";"Street388";"388"
"Country389";"12-345";"City389";"Street389";"389"
"Country390";"12-345";"City390";"Street390";"390"
"Country391";"12-345";"City391";"Street391";"391"
"Country392";"12-345";"City392";"Street392";"392"
"Country393";"12-345";"City393";"Street393";"393"
"Country394";"12-345";"City394";"Street394";"394"
"Country395";"12-345";"City395";"Street395";"395"
"Country396";"12-345";"City396";"Street396";"396"
"Country397";"12-345";"City397";"Street397";"397"
"Country398";"12-345";"City398";"Street398";"398"
"Country399";"12-345";"City399";"Street399";"399"
"Country400";"12-345";"City400";"Street400";"400"
"Country401";"12-345";"City401";"Street401";"401"
"Country402";"12-345";"City402";"Street402";"402"
"Country403";"12-345";"City403";"Street403";"403"
"Country404";"12-345";"City404";"Street404";"404"
"Country405";"12-345";"City405";"Street405";"405"
"Country406";"12-345";"City406";"Street406";"406"
"Country407";"12-345";"City407";"Street407";"407"
"Country408";"12-345";"City408";"Street408";"408"
"Country409";"12-345";"City409";"Street409";"409"
"Country410";"12-345";"City410";"Street410";"410"
"Country411";"12-345";"City411";"Street411";"411"
"Country412";"12-345";"City412";"Street412";"412"
"Country413";"12-345";"City413";"Street413";"413"
"Country414";"12-345";"City414";"Street414";"414"
"Country415";"12-345";"City415";"Street415";"415"
"Country416";"12-345";"City416";"Street416";"416"
"Country417";"12-345";"City417";"Street417";"417"
"Country418";"12-345";"City418";"Street418";"418"
"Country419";"12-345";"City419";"Street419";"419"
"Country420";"12-345";"City420";"Street420";"420"
"Country421";"12-345";"City421";"Street421";"421"
"Country422";"12-345";"City422";"Street422";"422"
"Country423";"12-345";"City423";"Street423";"423"
"Country424";"12-345";"City424";"Street424";"424"
"Country425";"12-345";"City425";"Street425";"425"
"Country426";"12-345";"City426";"Street426";"426"
"Country427";"12-345";"City427";"Street427";"427"
"Country428";"12-345";"City428";"Street428";"428"
"Country429";"12-345";"City429";"Street429";"429"
"Country430";"12-345";"City430";"Street430";"430"
"Country431";"12-345";"City431";"Street431";"431"
"Country432";"12-345";"City432";"Street432";"432"
"Country433";"12-345";"City433";"Street433";"433"
"Country434";"12-345";"City434";"Street434";"434"
"Country435";"12-345";"City435";"Street435";"435"
"Country436";"12-345";"City436";"Street436";"436"
"Country437";"12-345";"City437";"Street437";"437"
"Country438";"12-345";"City438";"Street438";"438"
"Country439";"12-345";"City439";"Street439";"439"
"Country440";"12-345";"City440";"Street440";"440"
"Country441";"12-345";"City441";"Street441";"441"
"Country442";"12-345";"City442";"Street442";"442"
"Country443";"12-345";"City443";"Street443";"443"
"Country444";"12-345";"City444";"Street444";"444"
"Country445";"12-345";"City445";"Street445";"445"
"Country446";"12-345";"City446";"Street446";"446"
"Country447";"12-345";"City447";"Street447";"447"
"Country448";"12-345";"City448";"Street448";"448"
"Country449";"12-345";"City449";"Street449";"449"
"Country450";"12-345";"City450";"Street450";"450"
"Country451";"12-345";"City451";"Street451";"451"
"Country452";"12-345";"City452";"Street452";"452"
"Country453";"12-345";"City453";"Street453";"453"
"Country454";"12-345";"City454";"Street454";"454"
"Country455";"12-345";"City455";"Street455";"455"
"Country456";"12-345";"City456";"Street456";"456"
"Country457";"12-345";"City457";"Street457";"457"
"Country458";"12-345";"City458";"Street458";"458"
"Country459";"12-345";"City459";"Street459";"459"
"Country460";"12-345";"City460";"Street460";"460"
"Country461";"12-345";"City461";"Street461";"461"
"Country462";"12-345";"City462";"Street462";"462"
"Country463";"12-345";"City463";"Street463";"463"
"Country464";"12-345";"City464";"Street464";"464"
"Country465";"12-345";"City465";"Street465";"465"
"Country466";"12-345";"City466";"Street466";"466"
"Country467";"12-345";"City467";"Street467";"467"
"Country468";"12-345";"City468";"Street468";"468"
"Country469";"12-345";"City469";"Street469";"469"
"Country470";"12-345";"City470";"Street470";"470"
"Country471";"12-345";"City471";"Street471";"471"
"Country472";"12-345";"City472";"Street472";"472"
"Country473";"12-345";"City473";"Street473";"473"
"Country474";"12-345";"City474";"Street474";"474"
"Country475";"12-345";"City475";"Street475";"475"
"Country476";"12-345";"City476";"Street476";"476"
"Country477";"12-345";"City477";"Street477";"477"
"Country478";"12-345";"City478";"Street478";"478"
"Country479";"12-345";"City479";"Street479";"479"
"Country480";"12-345";"City480";"Street480";"480"
"Country481";"12-345";"City481";"Street481";"481"
"Country482";"12-345";"City482";"Street482";"482"
"Country483";"12-345";"City483";"Street483";"483"
"Country484";"12-345";"City484";"Street484";"484"
"Country485";"12-345";"City485";"Street485";"485"
"Country486";"12-345";"City486";"Street486";"486"
"Country487";"12-345";"City487";"Street487";"487"
"Country488";"12-345";"City488";"Street488";"488"
"Country489";"12-345";"City489";"Street489";"489"
"Country490";"12-345";"City490";"Street490";"490"
"Country491";"12-345";"City491";"Street491";"491"
"Country492";"12-345";"City492";"Street492";"492"
"Country493";"12-345";"City493";"Street493";"493"
"Country494";"12-345";"City494";"Street494";"494"
"Country495";"12-345";"City495";"Street495";"495"
"Country496";"12-345";"City496";"Street496";"496"
"Country497";"12-345";"City497";"Street497";"497"
"Country498";"12-345";"City498";"Street498";"498"
"Country499";"12-345";"City499";"Street499";"499"
"Country500";"12-345";"City500";"Street500";"500"
"Country501";"12-345";"City501";"Street501";"501"
"Country502";"12-345";"City502";"Street502";"502"
"Country503";"12-345";"City503";"Street503";"503"
"Country504";"12-345";"City504";"Street504";"504"
"Country505";"12-345";"City505";"Street505";"505"
"Country506";"12-345";"City506";"Street506";"506"
"Country507";"12-345";"City507";"Street507";"507"
"Country508";"12-345";"City508";"Street508";"508"
"Country509";"12-345";"City509";"Street509";"509"
"Country510";"12-345";"City510";"Street510";"510"
"Country511";"12-345";"City511";"Street511";"511"
"Country512";"12-345";"City512";"Street512";"512"
"Country513";"12-345";"City513";"Street513";"513"
"Country514";"12-345";"City514";"Street514";"514"
"Country515";"12-345";"City515";"Street515";"515"
"Country516";"12-345";"City516";"Street516";"516"
"Country517";"12-345";"City517";"Street517";"517"
"Country518";"12-345";"City518";"Street518";"518"
"Country519";"12-345";"City519";"Street519";"519"
"Country520";"12-345";"City520";"Street520";"520"
"Country521";"12-345";"City521";"Street521";"521"
"Country522";"12-345";"City522";"Street522";"522"
"Country523";"12-345";"City523";"Street523";"523"
"Country524";"12-345";"City524";"Street524";"524"
"Country525";"12-345";"City525";"Street525";"525"
"Country526";"12-345";"City526";"Street526";"526"
"Country527";"12-345";"City527";"Street527";"527"
"Country528";"12-345";"City528";"Street528";"528"
"Country529";"12-345";"City529";"Street529";"529"
"Country530";"12-345";"City530";"Street530";"530"
"Country531";"12-345";"City531";"Street531";"531"
"Country532";"12-345";"City532";"Street532";"532"
"Country533";"12-345";"City533";"Street533";"533"
"Country534";"12-345";"City534";"Street534";"534"
"Country535";"12-345";"City535";"Street535";"535"
"Country536";"12-345";"City536";"Street536";"536"
"Country537";"12-345";"City537";"Street537";"537"
"Country538";"12-345";"City538";"Street538";"538"
"Country539";"12-345";"City539";"Street539";"539"
"Country540";"12-345";"City540";"Street540";"540"
"Country541";"12-345";"City541";"Street541";"541"
"Country542";"12-345";"City542";"Street542";"542"
"Country543";"12-345";"City543";"Street543";"543"
"Country544";"12-345";"City544";"Street544";"544"
"Country545";"12-345";"City545";"Street545";"545"
"Country546";"12-345";"City546";"Street546";"546"
"Country547";"12-345";"City547";"Street547";"547"
"Country548";"12-345";"City548";"Street548";"548"
"Country549";"12-345";"City549";"Street549";"549"
"Country550";"12-345";"City550";"Street550";"550"
"Country551";"12-345";"City551";"Street551";"551"
"Country552";"12-345";"City552";"Street552";"552"
"Country553";"12-345";"City553";"Street553";"553"
"Country554";"12-345";"City554";"Street554";"554"
"Country555";"12-345";"City555";"Street555";"555"
"Country556";"12-345";"City556";"Street556";"556"
"Country557";"12-345";"City557";"Street557";"557"
"Country558";"12-345";"City558";"Street558";"558"
"Country559";"12-345";"City559";"Street559";"559"
"Country560";"12-345";"City560";"Street560";"560"
"Country561";"12-345";"City561";"Street561";"561"
"Country562";"12-345";"City562";"Street562";"562"
"Country563";"12-345";"City563";"Street563";"563"
"Country564";"12-345";"City564";"Street564";"564"
"Country565";"12-345";"City565";"Street565";"565"
"Country566";"12-345";"City566";"Street566";"566"
"Country567";"12-345";"City567";"Street567";"567"
"Country568";"12-345";"City568";"Street568";"568"
"Country569";"12-345";"City569";"Street569";"569"
"Country570";"12-345";"City570";"Street570";"570"
"Country571";"12-345";"City571";"Street571";"571"
"Country572";"12-345";"City572";"Street572";"572"
"Country573";"12-345";"City573";"Street573";"573"
"Country574";"12-345";"City574";"Street574";"574"
"Country575";"12-345";"City575";"Street575";"575"
"Country576";"12-345";"City576";"Street576";"576"
"Country577";"12-345";"City577";"Street577";"577"
"Country578";"12-345";"City578";"Street578";"578"
"Country579";"12-345";"City579";"Street579";"579"
"Country580";"12-345";"City580";"Street580";"580"
"Country581";"12-345";"City581";"Street581";"581"
"Country582";"12-345";"City582";"Street582";"582"
"Country583";"12-345";"City583";"Street583";"583"
"Country584";"12-345";"City584";"Street584";"584"
"Country585";"12-345";"City585";"Street585";"585"
"Country586";"12-345";"City586";"Street586";"586"
"Country587";"12-345";"City587";"Street587";"587"
"Country588";"12-345";"City588";"Street588";"588"
"Country589";"12-345";"City589";"Street589";"589"
"Country590";"12-345";"City590";"Street590";"590"
"Country591";"12-345";"City591";"Street591";"591"
"Country592";"12-345";"City592";"Street592";"592"
"Country593";"12-345";"City593";"Street593";"593"
"Country594";"12-345";"City594";"Street594";"594"
"Country595";"12-345";"City595";"Street595";"595"
"Country596";"12-345";"City596";"Street596";"596"
"Country597";"12-345";"City597";"Street597";"597"
"Country598";"12-345";"City598";"Street598";"598"
"Country599";"12-345";"City599";"Street599";"599"
"Country600";"12-345";"City600";"Street600";"600"
"Country601";"12-345";"City601";"Street601";"601"
"Country602";"12-345";"City602";"Street602";"602"
"Country603";"12-345";"City603";"Street603";"603"
"Country604";"12-345";"City604";"Street604";"604"
"Country605";"12-345";"City605";"Street605";"605"
"Country606";"12-345";"City606";"Street606";"606"
"Country607";"12-345";"City607";"Street607";"607"
"Country608";"12-345";"City608";"Street608";"608"
"Country609";"12-345";"City609";"Street609";"609"
"Country610";"12-345";"City610";"Street610";"610"
"Country611";"12-345";"City611";"Street611";"611"
"Country612";"12-345";"City612";"Street612";"612"
"Country613";"12-345";"City613";"Street613";"613"
"Country614";"12-345";"City614";"Street614";"614"
"Country615";"12-345";"City615";"Street615";"615"
"Country616";"12-345";"City616";"Street616";"616"
"Country617";"12-345";"City617";"Street617";"617"
"Country618";"12-345";"City618";"Street618";"618"
"Country619";"12-345";"City619";"Street619";"619"
"Country620";"12-345";"City620";"Street620";"620"
"Country621";"12-345";"City621";"Street621";"621"
"Country622";"12-345";"City622";"Street622";"622"
"Country623";"12-345";"City623";"Street623";"623"
"Country624";"12-345";"City624";"Street624";"624"
"Country625";"12-345";"City625";"Street625";"625"
"Country626";"12-345";"City626";"Street626";"626"
"Country627";"12-345";"City627";"Street627";"627"
"Country628";"12-345";"City628";"Street628";"628"
"Country629";"12-345";"City629";"Street629";"629"
"Country630";"12-345";"City630";"Street630";"630"
"Country631";"12-345";"City631";"Street631";"631"
"Country632";"12-345";"City632";"Street632";"632"
"Country633";"12-345";"City633";"Street633";"633"
"Country634";"12-345";"City634";"Street634";"634"
"Country635";"12-345";"City635";"Street635";"635"
"Country636";"12-345";"City636";"Street636";"636"
"Country637";"12-345";"City637";"Street637";"637"
"Country638";"12-345";"City638";"Street638";"638"
"Country639";"12-345";"City639";"Street639";"639"
"Country640";"12-345";"City640";"Street640";"640"
"Country641";"12-345";"City641";"Street641";"641"
"Country642";"12-345";"City642";"Street642";"642"
"Country643";"12-345";"City643";"Street643";"643"
"Country644";"12-345";"City644";"Street644";"644"
"Country645";"12-345";"City645";"Street645";"645"
"Country646";"12-345";"City646";"Street646";"646"
"Country647";"12-345";"City647";"Street647";"647"
"Country648";"12-345";"City648";"Street648";"648"
"Country649";"12-345";"City649";"Street649";"649"
"Country650";"12-345";"City650";"Street650";"650"
"Country651";"12-345";"City651";"Street651";"651"
"Country652";"12-345";"City652";"Street652";"652"
"Country653";"12-345";"City653";"Street653";"653"
"Country654";"12-345";"City654";"Street654";"654"
"Country655";"12-345";"City655";"Street655";"655"
"Country656";"12-345";"City656";"Street656";"656"
"Country657";"12-345";"City657";"Street657";"657"
"Country658";"12-345";"City658";"Street658";"658"
"Country659";"12-345";"City659";"Street659";"659"
"Country660";"12-345";"City660";"Street660";"660"
"Country661";"12-345";"City661";"Street661";"661"
"Country662";"12-345";"City662";"Street662";"662"
"Country663";"12-345";"City663";"Street663";"663"
"Country664";"12-345";"City664";"Street664";"664"
"Country665";"12-345";"City665";"Street665";"665"
"Country666";"12-345";"City666";"Street666";"666"
"Country667";"12-345";"City667";"Street667";"667"
"Country668";"12-345";"City668";"Street668";"668"
"Country669";"12-345";"City669";"Street669";"669"
"Country670";"12-345";"City670";"Street670";"670"
"Country671";"12-345";"City671";"Street671";"671"
"Country672";"12-345";"City672";"Street672";"672"
"Country673";"12-345";"City673";"Street673";"673"
"Country674";"12-345";"City674";"Street674";"674"
"Country675";"12-345";"City675";"Street675";"675"
"Country676";"12-345";"City676";"Street676";"676"
"Country677";"12-345";"City677";"Street677";"677"
"Country678";"12-345";"City678";"Street678";"678"
"Country679";"12-345";"City679";"Street679";"679"
"Country680";"12-345";"City680";"Street680";"680"
"Country681";"12-345";"City681";"Street681";"681"
"Country682";"12-345";"City682";"Street682";"682"
"Country683";"12-345";"City683";"Street683";"683"
"Country684";"12-345";"City684";"Street684";"684"
"Country685";"12-345";"City685";"Street685";"685"
"Country686";"12-345";"City686";"Street686";"686"
"Country687";"12-345";"City687";"Street687";"687"
"Country688";"12-345";"City688";"Street688";"688"
"Country689";"12-345";"City689";"Street689";"689"
"Country690";"12-345";"City690";"Street690";"690"
"Country691";"12-345";"City691";"Street691";"691"
"Country692";"12-345";"City692";"Street692";"692"
"Country693";"12-345";"City693";"Street693";"693"
"Country694";"12-345";"City694";"Street694";"694"
"Country695";"12-345";"City695";"Street695";"695"
"Country696";"12-345";"City696";"Street696";"696"
"Country697";"12-345";"City697";"Street697";"697"
"Country698";"12-345";"City698";"Street698";"698"
"Country699";"12-345";"City699";"Street699";"699"
"Country700";"12-345";"City700";"Street700";"700"
"Country701";"12-345";"City701";"Street701";"701"
"Country702";"12-345";"City702";"Street702";"702"
"Country703";"12-345";"City703";"Street703";"703"
"Country704";"12-345";"City704";"Street704";"704"
"Country705";"12-345";"City705";"Street705";"705"
"Country706";"12-345";"City706";"Street706";"706"
"Country707";"12-345";"City707";"Street707";"707"
"Country708";"12-345";"City708";"Street708";"708"
"Country709";"12-345";"City709";"Street709";"709"
"Country710";"12-345";"City710";"Street710";"710"
"Country711";"12-345";"City711";"Street711";"711"
"Country712";"12-345";"City712";"Street712";"712"
"Country713";"12-345";"City713";"Street713";"713"
"Country714";"12-345";"City714";"Street714";"714"
"Country715";"12-345";"City715";"Street715";"715"
"Country716";"12-345";"City716";"Street716";"716"
"Country717";"12-345";"City717";"Street717";"717"
"Country718";"12-345";"City718";"Street718";"718"
"Country719";"12-345";"City719";"Street719";"719"
"Country720";"12-345";"City720";"Street720";"720"
"Country721";"12-345";"City721";"Street721";"721"
"Country722";"12-345";"City722";"Street722";"722"
"Country723";"12-345";"City723";"Street723";"723"
"Country724";"12-345";"City724";"Street724";"724"
"Country725";"12-345";"City725";"Street725";"725"
"Country726";"12-345";"City726";"Street726";"726"
"Country727";"12-345";"City727";"Street727";"727"
"Country728";"12-345";"City728";"Street728";"728"
"Country729";"12-345";"City729";"Street729";"729"
"Country730";"12-345";"City730";"Street730";"730"
"Country731";"12-345";"City731";"Street731";"731"
"Country732";"12-345";"City732";"Street732";"732"
"Country733";"12-345";"City733";"Street733";"733"
"Country734";"12-345";"City734";"Street734";"734"
"Country735";"12-345";"City735";"Street735";"735"
"Country736";"12-345";"City736";"Street736";"736"
"Country737";"12-345";"City737";"Street737";"737"
"Country738";"12-345";"City738";"Street738";"738"
"Country739";"12-345";"City739";"Street739";"739"
"Country740";"12-345";"City740";"Street740";"740"
"Country741";"12-345";"City741";"Street741";"741"
"Country742";"12-345";"City742";"Street742";"742"
"Country743";"12-345";"City743";"Street743";"743"
"Country744";"12-345";"City744";"Street744";"744"
"Country745";"12-345";"City745";"Street745";"745"
"Country746";"12-345";"City746";"Street746";"746"
"Country747";"12-345";"City747";"Street747";"747"
"Country748";"12-345";"City748";"Street748";"748"
"Country749";"12-345";"City749";"Street749";"749"
"Country750";"12-345";"City750";"Street750";"750"
"Country751";"12-345";"City751";"Street751";"751"
"Country752";"12-345";"City752";"Street752";"752"
"Country753";"12-345";"City753";"Street753";"753"
"Country754";"12-345";"City754";"Street754";"754"
"Country755";"12-345";"City755";"Street755";"755"
"Country756";"12-345";"City756";"Street756";"756"
"Country757";"12-345";"City757";"Street757";"757"
"Country758";"12-345";"City758";"Street758";"758"
"Country759";"12-345";"City759";"Street759";"759"
"Country760";"12-345";"City760";"Street760";"760"
"Country761";"12-345";"City761";"Street761";"761"
"Country762";"12-345";"City762";"Street762";"762"
"Country763";"12-345";"City763";"Street763";"763"
"Country764";"12-345";"City764";"Street764";"764"
"Country765";"12-345";"City765";"Street765";"765"
"Country766";"12-345";"City766";"Street766";"766"
"Country767";"12-345";"City767";"Street767";"767"
"Country768";"12-345";"City768";"Street768";"768"
"Country769";"12-345";"City769";"Street769";"769"
"Country770";"12-345";"City770";"Street770";"770"
"Country771";"12-345";"City771";"Street771";"771"
"Country772";"12-345";"City772";"Street772";"772"
"Country773";"12-345";"City773";"Street773";"773"
"Country774";"12-345";"City774";"Street774";"774"
"Country775";"12-345";"City775";"Street775";"775"
"Country776";"12-345";"City776";"Street776";"776"
"Country777";"12-345";"City777";"Street777";"777"
"Country778";"12-345";"City778";"Street778";"778"
"Country779";"12-345";"City779";"Street779";"779"
"Country780";"12-345";"City780";"Street780";"780"
"Country781";"12-345";"City781";"Street781";"781"
"Country782";"12-345";"City782";"Street782";"782"
"Country783";"12-345";"City783";"Street783";"783"
"Country784";"12-345";"City784";"Street784";"784"
"Country785";"12-345";"City785";"Street785";"785"
"Country786";"12-345";"City786";"Street786";"786"
"Country787";"12-345";"City787";"Street787";"787"
"Country788";"12-345";"City788";"Street788";"788"
"Country789";"12-345";"City789";"Street789";"789"
"Country790";"12-345";"City790";"Street790";"790"
"Country791";"12-345";"City791";"Street791";"791"
"Country792";"12-345";"City792";"Street792";"792"
"Country793";"12-345";"City793";"Street793";"793"
"Country794";"12-345";"City794";"Street794";"794"
"Country795";"12-345";"City795";"Street795";"795"
"Country796";"12-345";"City796";"Street796";"796"
"Country797";"12-345";"City797";"Street797";"797"
"Country798";"12-345";"City798";"Street798";"798"
"Country799";"12-345";"City799";"Street799";"799"
"Country800";"12-345";"City800";"Street800";"800"
"Country801";"12-345";"City801";"Street801";"801"
"Country802";"12-345";"City802";"Street802";"802"
"Country803";"12-345";"City803";"Street803";"803"
"Country804";"12-345";"City804";"Street804";"804"
"Country805";"12-345";"City805";"Street805";"805"
"Country806";"12-345";"City806";"Street806";"806"
"Country807";"12-345";"City807";"Street807";"807"
"Country808";"12-345";"City808";"Street808";"808"
"Country809";"12-345";"City809";"Street809";"809"
"Country810";"12-345";"City810";"Street810";"810"
"Country811";"12-345";"City811";"Street811";"811"
"Country812";"12-345";"City812";"Street812";"812"
"Country813";"12-345";"City813";"Street813";"813"
"Country814";"12-345";"City814";"Street814";"814"
"Country815";"12-345";"City815";"Street815";"815"
"Country816";"12-345";"City816";"Street816";"816"
"Country817";"12-345";"City817";"Street817";"817"
"Country818";"12-345";"City818";"Street818";"818"
"Country819";"12-345";"City819";"Street819";"819"
"Country820";"12-345";"City820";"Street820";"820"
"Country821";"12-345";"City821";"Street821";"821"
"Country822";"12-345";"City822";"Street822";"822"
"Country823";"12-345";"City823";"Street823";"823"
"Country824";"12-345";"City824";"Street824";"824"
"Country825";"12-345";"City825";"Street825";"825"
"Country826";"12-345";"City826";"Street826";"826"
"Country827";"12-345";"City827";"Street827";"827"
"Country828";"12-345";"City828";"Street828";"828"
"Country829";"12-345";"City829";"Street829";"829"
"Country830";"12-345";"City830";"Street830";"830"
"Country831";"12-345";"City831";"Street831";"831"
"Country832";"12-345";"City832";"Street832";"832"
"Country833";"12-345";"City833";"Street833";"833"
"Country834";"12-345";"City834";"Street834";"834"
"Country835";"12-345";"City835";"Street835";"835"
"Country836";"12-345";"City836";"Street836";"836"
"Country837";"12-345";"City837";"Street837";"837"
"Country838";"12-345";"City838";"Street838";"838"
"Country839";"12-345";"City839";"Street839";"839"
"Country840";"12-345";"City840";"Street840";"840"
"Country841";"12-345";"City841";"Street841";"841"
"Country842";"12-345";"City842";"Street842";"842"
"Country843";"12-345";"City843";"Street843";"843"
"Country844";"12-345";"City844";"Street844";"844"
"Country845";"12-345";"City845";"Street845";"845"
"Country846";"12-345";"City846";"Street846";"846"
"Country847";"12-345";"City847";"Street847";"847"
"Country848";"12-345";"City848";"Street848";"848"
"Country849";"12-345";"City849";"Street849";"849"
"Country850";"12-345";"City850";"Street850";"850"
"Country851";"12-345";"City851";"Street851";"851"
"Country852";"12-345";"City852";"Street852";"852"
"Country853";"12-345";"City853";"Street853";"853"
"Country854";"12-345";"City854";"Street854";"854"
"Country855";"12-345";"City855";"Street855";"855"
"Country856";"12-345";"City856";"Street856";"856"
"Country857";"12-345";"City857";"Street857";"857"
"Country858";"12-345";"City858";"Street858";"858"
"Country859";"12-345";"City859";"Street859";"859"
"Country860";"12-345";"City860";"Street860";"860"
"Country861";"12-345";"City861";"Street861";"861"
"Country862";"12-345";"City862";"Street862";"862"
"Country863";"12-345";"City863";"Street863";"863"
"Country864";"12-345";"City864";"Street864";"864"
"Country865";"12-345";"City865";"Street865";"865"
"Country866";"12-345";"City866";"Street866";"866"
"Country867";"12-345";"City867";"Street867";"867"
"Country868";"12-345";"City868";"Street868";"868"
"Country869";"12-345";"City869";"Street869";"869"
"Country870";"12-345";"City870";"Street870";"870"
"Country871";"12-345";"City871";"Street871";"871"
"Country872";"12-345";"City872";"Street872";"872"
"Country873";"12-345";"City873";"Street873";"873"
"Country874";"12-345";"City874";"Street874";"874"
"Country875";"12-345";"City875";"Street875";"875"
"Country876";"12-345";"City876";"Street876";"876"
"Country877";"12-345";"City877";"Street877";"877"
"Country878";"12-345";"City878";"Street878";"878"
"Country879";"12-345";"City879";"Street879";"879"
"Country880";"12-345";"City880";"Street880";"880"
"Country881";"12-345";"City881";"Street881";"881"
"Country882";"12-345";"City882";"Street882";"882"
"Country883";"12-345";"City883";"Street883";"883"
"Country884";"12-345";"City884";"Street884";"884"
"Country885";"12-345";"City885";"Street885";"885"
"Country886";"12-345";"City886";"Street886";"886"
"Country887";"12-345";"City887";"Street887";"887"
"Country888";"12-345";"City888";"Street888";"888"
"Country889";"12-345";"City889";"Street889";"889"
"Country890";"12-345";"City890";"Street890";"890"
"Country891";"12-345";"City891";"Street891";"891"
"Country892";"12-345";"City892";"Street892";"892"
"Country893";"12-345";"City893";"Street893";"893"
"Country894";"12-345";"City894";"Street894";"894"
"Country895";"12-345";"City895";"Street895";"895"
"Country896";"12-345";"City896";"Street896";"896"
"Country897";"12-345";"City897";"Street897";"897"
"Country898";"12-345";"City898";"Street898";"898"
"Country899";"12-345";"City899";"Street899";"899"
"Country900";"12-345";"City900";"Street900";"900"
"Country901";"12-345";"City901";"Street901";"901"
"Country902";"12-345";"City902";"Street902";"902"
"Country903";"12-345";"City903";"Street903";"903"
"Country904";"12-345";"City904";"Street904";"904"
"Country905";"12-345";"City905";"Street905";"905"
"Country906";"12-345";"City906";"Street906";"906"
"Country907";"12-345";"City907";"Street907";"907"
"Country908";"12-345";"City908";"Street908";"908"
"Country909";"12-345";"City909";"Street909";"909"
"Country910";"12-345";"City910";"Street910";"910"
"Country911";"12-345";"City911";"Street911";"911"
"Country912";"12-345";"City912";"Street912";"912"
"Country913";"12-345";"City913";"Street913";"913"
"Country914";"12-345";"City914";"Street914";"914"
"Country915";"12-345";"City915";"Street915";"915"
"Country916";"12-345";"City916";"Street916";"916"
"Country917";"12-345";"City917";"Street917";"917"
"Country918";"12-345";"City918";"Street918";"918"
"Country919";"12-345";"City919";"Street919";"919"
"Country920";"12-345";"City920";"Street920";"920"
"Country921";"12-345";"City921";"Street921";"921"
"Country922";"12-345";"City922";"Street922";"922"
"Country923";"12-345";"City923";"Street923";"923"
"Country924";"12-345";"City924";"Street924";"924"
"Country925";"12-345";"City925";"Street925";"925"
"Country926";"12-345";"City926";"Street926";"926"
"Country927";"12-345";"City927";"Street927";"927"
"Country928";"12-345";"City928";"Street928";"928"
"Country929";"12-345";"City929";"Street929";"929"
"Country930";"12-345";"City930";"Street930";"930"
"Country931";"12-345";"City931";"Street931";"931"
"Country932";"12-345";"City932";"Street932";"932"
"Country933";"12-345";"City933";"Street933";"933"
"Country934";"12-345";"City934";"Street934";"934"
"Country935";"12-345";"City935";"Street935";"935"
"Country936";"12-345";"City936";"Street936";"936"
"Country937";"12-345";"City937";"Street937";"937"
"Country938";"12-345";"City938";"Street938";"938"
"Country939";"12-345";"City939";"Street939";"939"
"Country940";"12-345";"City940";"Street940";"940"
"Country941";"12-345";"City941";"Street941";"941"
"Country942";"12-345";"City942";"Street942";"942"
"Country943";"12-345";"City943";"Street943";"943"
"Country944";"12-345";"City944";"Street944";"944"
"Country945";"12-345";"City945";"Street945";"945"
"Country946";"12-345";"City946";"Street946";"946"
"Country947";"12-345";"City947";"Street947";"947"
"Country948";"12-345";"City948";"Street948";"948"
"Country949";"12-345";"City949";"Street949";"949"
"Country950";"12-345";"City950";"Street950";"950"
"Country951";"12-345";"City951";"Street951";"951"
"Country952";"12-345";"City952";"Street952";"952"
"Country953";"12-345";"City953";"Street953";"953"
"Country954";"12-345";"City954";"Street954";"954"
"Country955";"12-345";"City955";"Street955";"955"
"Country956";"12-345";"City956";"Street956";"956"
"Country957";"12-345";"City957";"Street957";"957"
"Country958";"12-345";"City958";"Street958";"958"
"Country959";"12-345";"City959";"Street959";"959"
"Country960";"12-345";"City960";"Street960";"960"
"Country961";"12-345";"City961";"Street961";"961"
"Country962";"12-345";"City962";"Street962";"962"
"Country963";"12-345";"City963";"Street963";"963"
"Country964";"12-345";"City964";"Street964";"964"
"Country965";"12-345";"City965";"Street965";"965"
"Country966";"12-345";"City966";"Street966";"966"
"Country967";"12-345";"City967";"Street967";"967"
"Country968";"12-345";"City968";"Street968";"968"
"Country969";"12-345";"City969";"Street969";"969"
"Country970";"12-345";"City970";"Street970";"970"
"Country971";"12-345";"City971";"Street971";"971"
"Country972";"12-345";"City972";"Street972";"972"
"Country973";"12-345";"City973";"Street973";"973"
"Country974";"12-345";"City974";"Street974";"974"
"Country975";"12-345";"City975";"Street975";"975"
"Country976";"12-345";"City976";"Street976";"976"
"Country977";"12-345";"City977";"Street977";"977"
"Country978";"12-345";"City978";"Street978";"978"
"Country979";"12-345";"City979";"Street979";"979"
"Country980";"12-345";"City980";"Street980";"980"
"Country981";"12-345";"City981";"Street981";"981"
"Country982";"12-345";"City982";"Street982";"982"
"Country983";"12-345";"City983";"Street983";"983"
"Country984";"12-345";"City984";"Street984";"984"
"Country985";"12-345";"City985";"Street985";"985"
"Country986";"12-345";"City986";"Street986";"986"
"Country987";"12-345";"City987";"Street987";"987"
"Country988";"12-345";"City988";"Street988";"988"
"Country989";"12-345";"City989";"Street989";"989"
"Country990";"12-345";"City990";"Street990";"990"
"Country991";"12-345";"City991";"Street991";"991"
"Country992";"12-345";"City992";"Street992";"992"
"Country993";"12-345";"City993";"Street993";"993"
"Country994";"12-345";"City994";"Street994";"994"
"Country995";"12-345";"City995";"Street995";"995"
"Country996";"12-345";"City996";"Street996";"996"
"Country997";"12-345";"City997";"Street997";"997"
"Country998";"12-345";"City998";"Street998";"998"
"Country999";"12-345";"City999";"Street999";"999"
"Country1000";"12-345";"City1000";"Street1000";"1000"
"Country1001";"12-345";"City1001";"Street1001";"1001"
"Country1002";"12-345";"City1002";"Street1002";"1002"
"Country1003";"12-345";"City1003";"Street1003";"1003"
"Country1004";"12-345";"City1004";"Street1004";"1004"
"Country1005";"12-345";"City1005";"Street1005";"1005"
"Country1006";"12-345";"City1006";"Street1006";"1006"
"Country1007";"12-345";"City1007";"Street1007";"1007"
"Country1008";"12-345";"City1008";"Street1008";"1008"
"Country1009";"12-345";"City1009";"Street1009";"1009"
"Country1010";"12-345";"City1010";"Street1010";"1010"
"Country1011";"12-345";"City1011";"Street1011";"1011"
"Country1012";"12-345";"City1012";"Street1012";"1012"
"Country1013";"12-345";"City1013";"Street1013";"1013"
"Country1014";"12-345";"City1014";"Street1014";"1014"
"Country1015";"12-345";"City1015";"Street1015";"1015"
"Country1016";"12-345";"City1016";"Street1016";"1016"
"Country1017";"12-345";"City1017";"Street1017";"1017"
"Country1018";"12-345";"City1018";"Street1018";"1018"
"Country1019";"12-345";"City1019";"Street1019";"1019"
"Country1020";"12-345";"City1020";"Street1020";"1020"
"Country1021";"12-345";"City1021";"Street1021";"1021"
"Country1022";"12-345";"City1022";"Street1022";"1022"
"Country1023";"12-345";"City1023";"Street1023";"1023"